STARLINK-31039          
1 58784U 24011V   26201.17843339  .00001095  00000+0  49089-4 0  9997
2 58784  53.1586 118.3579 0001101  84.9681 275.1445 15.30194051140557
STARLINK-31034          
1 58785U 24011W   26201.78198911  .00000596  00000+0  28782-4 0  9996
2 58785  53.1607  10.5708 0001080  79.0955 281.0169 15.34392465142143
STARLINK-31024          
1 58786U 24011X   26201.90164863  .00001098  00000+0  49200-4 0  9996
2 58786  53.1598 112.9440 0001365  84.1610 275.9547 15.30198166140692
STARLINK-31189          
1 58787U 24012A   26201.25032442  .00000815  00000+0  39130-4 0  9990
2 58787  42.9997 136.2507 0000749 273.1714  86.9052 15.27580648141514
STARLINK-31185          
1 58788U 24012B   26201.17609080  .00000845  00000+0  40207-4 0  9990
2 58788  43.0016 137.4141 0001008 268.3449  91.7287 15.27581034141497
STARLINK-31166          
1 58789U 24012C   26201.92089829 -.00000570  00000+0 -11187-4 0  9999
2 58789  43.0044 132.6837 0000841 288.9136  71.1624 15.27585319141614
STARLINK-31187          
1 58790U 24012D   26201.24019192  .00000830  00000+0  39666-4 0  9991
2 58790  43.0016 137.0344 0001163 266.5100  93.5619 15.27578225141506
STARLINK-31162          
1 58791U 24012E   26201.52729826  .00001706  00000+0  71512-4 0  9994
2 58791  43.0037 134.8995 0000870 267.6973  92.3779 15.27575653141552
STARLINK-31184          
1 58793U 24012G   26201.52215255  .00000560  00000+0  29857-4 0  9994
2 58793  43.0037 134.8545 0000918 279.1132  80.9616 15.27578601141552
STARLINK-31192          
1 58794U 24012H   26201.23762325  .00000531  00000+0  28808-4 0  9991
2 58794  43.0014 137.0087 0000980 261.7610  98.3131 15.27576627141507
STARLINK-31161          
1 58795U 24012J   26201.52473998 -.00000959  00000+0 -25348-4 0  9991
2 58795  43.0026 134.8735 0000869 276.7065  83.3687 15.27562883141556
STARLINK-31195          
1 58796U 24012K   26201.17995729 -.00000126  00000+0  49204-5 0  9997
2 58796  43.0012 137.4404 0000747 257.4319 102.6449 15.27574601141492
STARLINK-31193          
1 58797U 24012L   26200.87985222  .00000333  00000+0  21610-4 0  9990
2 58797  43.0035 138.6310 0001124 268.1560  91.9163 15.27574154141456
STARLINK-31168          
1 58798U 24012M   26201.21063419  .00002024  00000+0  83029-4 0  9996
2 58798  43.0033 136.8087 0001084 268.1618  91.9110 15.27583025141500
STARLINK-31191          
1 58800U 24012P   26201.51830384  .00005114  00000+0  19537-3 0  9991
2 58800  43.0001 134.8194 0000354 253.3523 106.7289 15.27552329141556
STARLINK-31170          
1 58801U 24012Q   26201.21705736  .00000587  00000+0  30862-4 0  9995
2 58801  43.0035 136.8578 0001552 270.9255  89.1419 15.27583468141502
STARLINK-31141          
1 58803U 24012S   26200.11577337 -.00001978  00000+0 -62375-4 0  9990
2 58803  43.0023 143.2114 0001858 270.3943  89.6696 15.27575476141339
STARLINK-31188          
1 58804U 24012T   26201.22091254  .00000924  00000+0  43089-4 0  9992
2 58804  43.0033 136.8866 0001402 272.8490  87.2201 15.27580196141502
STARLINK-31138          
1 58806U 24012V   26201.22348388  .00000125  00000+0  14082-4 0  9991
2 58806  43.0031 136.9017 0001149 265.4941  94.5779 15.27581715141507
STARLINK-31163          
1 58807U 24012W   26201.51056007  .00003360  00000+0  13143-3 0  9998
2 58807  43.0030 134.7555 0000041  17.4868 342.5985 15.27614230141552
STARLINK-31174          
1 58808U 24012X   26201.18236619  .00000078  00000+0  12347-4 0  9990
2 58808  43.0002 136.5934 0000863 239.6600 120.4166 15.27579725141505
STARLINK-31169          
1 58809U 24012Y   26201.54656507 -.00000010  00000+0  91685-5 0  9993
2 58809  43.0037 135.0281 0001297 267.3357  92.7347 15.27576896141555
STARLINK-31233          
1 58826U 24017A   26201.32223851 -.00001049  00000+0 -23287-4 0  9991
2 58826  53.1578 308.2023 0001124  95.0641 265.0488 15.30200400140486
STARLINK-31271          
1 58827U 24017B   26201.02204537  .00005544  00000+0  19920-3 0  9999
2 58827  53.1572 309.8853 0001697  84.1830 275.9364 15.30195089140314
STARLINK-31222          
1 58828U 24017C   26201.55710956 -.00000045  00000+0  10598-4 0  9990
2 58828  53.1597 306.8186 0001052 110.3207 249.7907 15.30191274140407
STARLINK-31258          
1 58829U 24017D   26201.31077919  .00001740  00000+0  62619-4 0  9993
2 58829  53.1585 308.1291 0001426  97.6023 262.5142 15.34396262140362
STARLINK-31253          
1 58830U 24017E   26201.03409610 -.00000334  00000+0  10138-5 0  9990
2 58830  53.1574 308.5406 0001560  89.4006 270.7174 15.31699970140335
STARLINK-31232          
1 58831U 24017F   26201.28576157  .00000141  00000+0  16310-4 0  9991
2 58831  53.1595 307.2660 0001294  97.9621 262.1528 15.31698088140379
STARLINK-31263          
1 58832U 24017G   26201.25609139  .00002003  00000+0  70400-4 0  9995
2 58832  53.1581 296.4320 0000998  79.5168 280.5947 15.34393204140632
STARLINK-31171          
1 58834U 24017J   26201.95305590  .00014988  00000+0  45419-3 0  9994
2 58834  53.1592 281.1780 0001337  74.6035 285.5115 15.34375669140798
