OBJECT_NAME,OBJECT_ID,EPOCH,MEAN_MOTION,ECCENTRICITY,INCLINATION,RA_OF_ASC_NODE,ARG_OF_PERICENTER,MEAN_ANOMALY,EPHEMERIS_TYPE,CLASSIFICATION_TYPE,NORAD_CAT_ID,ELEMENT_SET_NO,REV_AT_EPOCH,BSTAR,MEAN_MOTION_DOT,MEAN_MOTION_DDOT
STARLINK-31039,2024-011V,2026-07-20T04:16:56.644896,15.30194051,.00011016,53.1586,118.3579,84.9681,275.1445,0,U,58784,999,14055,.49088847E-4,.1095E-4,0
STARLINK-31034,2024-011W,2026-07-20T18:46:03.859104,15.34392465,.00010807,53.1607,10.5708,79.0955,281.0169,0,U,58785,999,14214,.28782067E-4,.596E-5,0
STARLINK-31024,2024-011X,2026-07-20T21:38:22.441632,15.30198166,.00013651,53.1598,112.9440,84.1610,275.9547,0,U,58786,999,14069,.49199971E-4,.1098E-4,0
STARLINK-31189,2024-012A,2026-07-20T06:00:28.029888,15.27580648,.00007493,42.9997,136.2507,273.1714,86.9052,0,U,58787,999,14151,.39129996E-4,.815E-5,0
STARLINK-31185,2024-012B,2026-07-20T04:13:34.245120,15.27581034,.00010086,43.0016,137.4141,268.3449,91.7287,0,U,58788,999,14149,.40206513E-4,.845E-5,0
STARLINK-31166,2024-012C,2026-07-20T22:06:05.612256,15.27585319,.00008419,43.0044,132.6837,288.9136,71.1624,0,U,58789,999,14161,-.11187196E-4,-.57E-5,0
STARLINK-31187,2024-012D,2026-07-20T05:45:52.581888,15.27578225,.00011638,43.0016,137.0344,266.5100,93.5619,0,U,58790,999,14150,.39666054E-4,.83E-5,0
STARLINK-31162,2024-012E,2026-07-20T12:39:18.569664,15.27575653,.00008703,43.0037,134.8995,267.6973,92.3779,0,U,58791,999,14155,.71512264E-4,.1706E-4,0
STARLINK-31184,2024-012G,2026-07-20T12:31:53.980320,15.27578601,.00009186,43.0037,134.8545,279.1132,80.9616,0,U,58793,999,14155,.29856725E-4,.56E-5,0
STARLINK-31192,2024-012H,2026-07-20T05:42:10.648800,15.27576627,.00009801,43.0014,137.0087,261.7610,98.3131,0,U,58794,999,14150,.2880846E-4,.531E-5,0
STARLINK-31161,2024-012J,2026-07-20T12:35:37.534272,15.27562883,.00008696,43.0026,134.8735,276.7065,83.3687,0,U,58795,999,14155,-.25348481E-4,-.959E-5,0
STARLINK-31195,2024-012K,2026-07-20T04:19:08.309856,15.27574601,.00007477,43.0012,137.4404,257.4319,102.6449,0,U,58796,999,14149,.4920444E-5,-.126E-5,0
STARLINK-31193,2024-012L,2026-07-19T21:06:59.231808,15.27574154,.00011249,43.0035,138.6310,268.1560,91.9163,0,U,58797,999,14145,.21610045E-4,.333E-5,0
STARLINK-31168,2024-012M,2026-07-20T05:03:18.794016,15.27583025,.0001084,43.0033,136.8087,268.1618,91.9110,0,U,58798,999,14150,.83028786E-4,.2024E-4,0
STARLINK-31191,2024-012P,2026-07-20T12:26:21.451776,15.27552329,.00003549,43.0001,134.8194,253.3523,106.7289,0,U,58800,999,14155,.19537128E-3,.5114E-4,0
STARLINK-31170,2024-012Q,2026-07-20T05:12:33.755904,15.27583468,.00015524,43.0035,136.8578,270.9255,89.1419,0,U,58801,999,14150,.30862009E-4,.587E-5,0
STARLINK-31141,2024-012S,2026-07-19T02:46:42.819168,15.27575476,.00018582,43.0023,143.2114,270.3943,89.6696,0,U,58803,999,14133,-.62375454E-4,-.1978E-4,0
STARLINK-31188,2024-012T,2026-07-20T05:18:06.843456,15.27580196,.00014028,43.0033,136.8866,272.8490,87.2201,0,U,58804,999,14150,.43089187E-4,.924E-5,0
STARLINK-31138,2024-012V,2026-07-20T05:21:49.007232,15.27581715,.00011499,43.0031,136.9017,265.4941,94.5779,0,U,58806,999,14150,.14081823E-4,.125E-5,0
STARLINK-31163,2024-012W,2026-07-20T12:15:12.390048,15.27614230,.00000412,43.0030,134.7555,17.4868,342.5985,0,U,58807,999,14155,.13142535E-3,.336E-4,0
STARLINK-31174,2024-012X,2026-07-20T04:22:36.438816,15.27579725,.00008635,43.0002,136.5934,239.6600,120.4166,0,U,58808,999,14150,.12346912E-4,.78E-6,0
STARLINK-31169,2024-012Y,2026-07-20T13:07:03.222048,15.27576896,.0001297,43.0037,135.0281,267.3357,92.7347,0,U,58809,999,14155,.91685E-5,-.1E-6,0
STARLINK-31233,2024-017A,2026-07-20T07:44:01.407264,15.30200400,.00011248,53.1578,308.2023,95.0641,265.0488,0,U,58826,999,14048,-.2328715E-4,-.1049E-4,0
STARLINK-31271,2024-017B,2026-07-20T00:31:44.719968,15.30195089,.00016978,53.1572,309.8853,84.1830,275.9364,0,U,58827,999,14031,.19920469E-3,.5544E-4,0
STARLINK-31222,2024-017C,2026-07-20T13:22:14.265984,15.30191274,.00010528,53.1597,306.8186,110.3207,249.7907,0,U,58828,999,14040,.10597811E-4,-.45E-6,0
STARLINK-31258,2024-017D,2026-07-20T07:27:31.322016,15.34396262,.00014267,53.1585,308.1291,97.6023,262.5142,0,U,58829,999,14036,.62618598E-4,.174E-4,0
STARLINK-31253,2024-017E,2026-07-20T00:49:05.903040,15.31699970,.00015604,53.1574,308.5406,89.4006,270.7174,0,U,58830,999,14033,.1013804E-5,-.334E-5,0
STARLINK-31232,2024-017F,2026-07-20T06:51:29.799648,15.31698088,.00012949,53.1595,307.2660,97.9621,262.1528,0,U,58831,999,14037,.16309544E-4,.141E-5,0
STARLINK-31263,2024-017G,2026-07-20T06:08:46.296096,15.34393204,.00009982,53.1581,296.4320,79.5168,280.5947,0,U,58832,999,14063,.70399791E-4,.2003E-4,0
STARLINK-31171,2024-017J,2026-07-20T22:52:24.029760,15.34375669,.00013378,53.1592,281.1780,74.6035,285.5115,0,U,58834,999,14079,.454194E-3,.14988E-3,0
